ONEWEB-0531             
1 54146U 22138AK  25171.19079090  .00000089  00000+0  18625-3 0  9998
2 54146  87.9261 346.5378 0002260  68.8561 291.2814 13.20772897132396
ONEWEB-0535             
1 54147U 22138AL  25170.59922019  .00000025  00000+0  30725-4 0  9996
2 54147  87.9210  17.0230 0001830  78.0938 282.0400 13.19726461129884
ONEWEB-0536             
1 54148U 22138AM  25171.17817239 -.00000056  00000+0 -17023-3 0  9990
2 54148  87.9263 346.5862 0002531  70.0625 290.0781 13.20772415132380
ONEWEB-0527             
1 54642U 22166A   25170.66129688  .00000150  00000+0  33080-3 0  9991
2 54642  87.9262 316.3060 0001946  96.8648 263.2707 13.21824490123644
ONEWEB-0528             
1 54643U 22166B   25171.12178976  .00000117  00000+0  25262-3 0  9994
2 54643  87.9266 316.2136 0001983  99.0520 261.0839 13.21824279124162
ONEWEB-0539             
1 54644U 22166C   25171.15805238  .00000037  00000+0  57191-4 0  9994
2 54644  87.9246 316.1860 0001715 102.2546 257.8780 13.21827787124167
ONEWEB-0540             
1 54645U 22166D   25171.16448954 -.00000002  00000+0 -37341-4 0  9993
2 54645  87.9261 316.2145 0001672 101.1267 259.0055 13.21828256124174
ONEWEB-0542             
1 54646U 22166E   25170.63764102  .00000055  00000+0  10081-3 0  9998
2 54646  87.9245 316.2878 0001442  97.0950 263.0348 13.21827038123645
